[{"OBJECT_NAME":"STARLINK-31084","OBJECT_ID":"2023-203N","EPOCH":"2026-03-09T01:29:42.872064","MEAN_MOTION":15.2757398,"ECCENTRICITY":0.00018671,"INCLINATION":43.0074,"RA_OF_ASC_NODE":74.2277,"ARG_OF_PERICENTER":288.8241,"MEAN_ANOMALY":71.2408,"EPHEMERIS_TYPE":0,"CLASSIFICATION_TYPE":"U","NORAD_CAT_ID":58630,"ELEMENT_SET_NO":999,"REV_AT_EPOCH":12342,"BSTAR":1.3848565e-5,"MEAN_MOTION_DOT":1.19e-6,"MEAN_MOTION_DDOT":0},{"OBJECT_NAME":"THORAD AGENA D DEB","OBJECT_ID":"1969-082CP","EPOCH":"2026-03-09T22:51:31.947840","MEAN_MOTION":15.31252047,"ECCENTRICITY":0.00108961,"INCLINATION":69.8927,"RA_OF_ASC_NODE":265.8646,"ARG_OF_PERICENTER":335.0972,"MEAN_ANOMALY":24.9676,"EPHEMERIS_TYPE":0,"CLASSIFICATION_TYPE":"U","NORAD_CAT_ID":4133,"ELEMENT_SET_NO":999,"REV_AT_EPOCH":97550,"BSTAR":0.0018489552,"MEAN_MOTION_DOT":0.00056347,"MEAN_MOTION_DDOT":0}]
